IRIDIUM 7               
1 24793U 97020B   25113.75276880  .00000637  00000+0  21325-3 0  9999
2 24793  86.4024 199.6938 0001973  92.6171 267.5252 14.35896344464080
IRIDIUM 5               
1 24795U 97020D   25114.06157176  .00010112  00000+0  84502-3 0  9997
2 24795  86.3844 108.6904 0108633 334.0042  25.5752 14.93837165477413
IRIDIUM 4               
1 24796U 97020E   25114.67578869  .00000598  00000+0  19586-3 0  9998
2 24796  86.4020 196.2236 0002225  91.9285 268.2167 14.36802195464818
IRIDIUM 914             
1 24836U 97030A   25114.20317393  .00000736  00000+0  22364-3 0  9998
2 24836  86.3995 205.1782 0003409  71.7449 288.4121 14.40821183461456
IRIDIUM 16              
1 24841U 97030F   25114.22136269  .00000784  00000+0  24955-3 0  9998
2 24841  86.4060 227.9252 0001223 171.9052 188.2166 14.38663475459509
IRIDIUM 911             
1 24842U 97030G   25114.75311558  .00001149  00000+0  30680-3 0  9991
2 24842  86.4488 226.5278 0012003 276.2264  83.7571 14.47571534467332
IRIDIUM 17              
1 24870U 97034B   25113.68811663  .00000938  00000+0  30544-3 0  9993
2 24870  86.3930 257.6665 0002429 135.4845 224.6548 14.37770215455750
IRIDIUM 920             
1 24871U 97034C   25113.87087503  .00000846  00000+0  25465-3 0  9997
2 24871  86.3984 236.9324 0009473 258.1952 101.8185 14.41478385458754
